BEIDOU-3 M14            
1 43623U 18072B   26134.03606905 -.00000037  00000+0  00000+0 0  9990
2 43623  56.5980  63.7808 0006648 347.7176  12.2477  1.86231503 52014
BEIDOU-3 M16            
1 43647U 18078A   26138.48750758 -.00000056  00000+0  00000+0 0  9992
2 43647  54.1181 301.0266 0007821  40.0003 320.0297  1.86232202 51600
BEIDOU-3 M15            
1 43648U 18078B   26137.00596728 -.00000055  00000+0  00000+0 0  9994
2 43648  54.1154 301.0790 0004856  54.1463 305.8719  1.86232227 51599
BEIDOU-3 G1             
1 43683U 18085A   26138.54107594 -.00000106  00000+0  00000+0 0  9997
2 43683   2.7928  98.1932 0007833 340.9337 151.8584  1.00271377 27768
BEIDOU-3 M17            
1 43706U 18093A   26138.35612889  .00000068  00000+0  00000+0 0  9995
2 43706  54.1671 183.3085 0009686 290.9034 146.3367  1.86228319 50982
BEIDOU-3 M18            
1 43707U 18093B   26138.10402297  .00000072  00000+0  00000+0 0  9994
2 43707  54.1677 183.3095 0007491 321.2887  38.7461  1.86226497 50979
BEIDOU-3 IGSO-1         
1 44204U 19023A   26132.76772565 -.00000227  00000+0  00000+0 0  9998
2 44204  58.6468  38.0171 0023856 234.3090 349.8662  1.00250503  6851
BEIDOU-2 G8             
1 44231U 19027A   26138.55803109 -.00000245  00000+0  00000+0 0  9994
2 44231   1.5830  74.4325 0010728 280.4072 226.8285  1.00270866 25784
BEIDOU-3 IGSO-2         
1 44337U 19035A   26137.49166271 -.00000055  00000+0  00000+0 0  9993
2 44337  55.2396 159.1317 0039694 216.0022 157.0068  1.00276035 25361
BEIDOU-3 M24            
1 44542U 19061A   26137.63609944  .00000079  00000+0  00000+0 0  9990
2 44542  54.3945 183.7586 0008086   2.2135 357.8815  1.86229137 45223
BEIDOU-3 M23            
1 44543U 19061B   26137.27783898  .00000084  00000+0  00000+0 0  9998
2 44543  54.3932 183.7392 0005281 342.0693  49.6204  1.86227335 45229
BEIDOU-3 IGSO-3         
1 44709U 19073A   26120.85038409 -.00000212  00000+0  00000+0 0  9996
2 44709  54.8842 281.4069 0042404 188.8195 170.9972  1.00251230 23982
BEIDOU-3 M22            
1 44793U 19078A   26136.93846774 -.00000055  00000+0  00000+0 0  9997
2 44793  53.9657 300.9268 0006998  48.7957 311.2377  1.86227149 44062
BEIDOU-3 M21            
1 44794U 19078B   26136.54150291 -.00000055  00000+0  00000+0 0  9997
2 44794  53.9390 300.9027 0004900  45.2623 314.7514  1.86227806 44064
BEIDOU-3 M19            
1 44864U 19090A   26134.37148076 -.00000039  00000+0  00000+0 0  9998
2 44864  56.5302  63.9086 0019040 296.9236 245.2774  1.86231675 43605
BEIDOU-3 M20            
1 44865U 19090B   26137.46466772 -.00000044  00000+0  00000+0 0  9994
2 44865  56.5345  63.8409 0016720 310.1463 235.4725  1.86231382 43640
BEIDOU-3 G2             
1 45344U 20017A   26138.54131184 -.00000139  00000+0  00000+0 0  9999
2 45344   2.8048  46.8664 0002298   8.3437  95.9387  1.00271410 22960
BEIDOU-3 G3             
1 45807U 20040A   26138.54737853 -.00000352  00000+0  00000+0 0  9991
2 45807   2.3746  67.3555 0003062 331.5834 144.9083  1.00271801 21773
BEIDOU-3 G4             
1 56564U 23066A   26138.55319370 -.00000278  00000+0  00000+0 0  9992
2 56564   0.5246 324.4602 0003516 173.9230  77.0409  1.00274010 11099
BEIDOU-3 M28            
1 58654U 23207A   26137.15564157 -.00000046  00000+0  00000+0 0  9994
2 58654  55.7267  63.3498 0004118 332.6037  27.3589  1.86229610 16267
BEIDOU-3 M26            
1 58655U 23207B   26138.02705872 -.00000045  00000+0  00000+0 0  9992
2 58655  55.7296  63.3068 0004238 311.6011  48.3500  1.86229588 16265
BEIDOU-3 M25            
1 61186U 24168B   26138.42023484 -.00000057  00000+0  00000+0 0  9991
2 61186  54.5009 303.2761 0002998 312.1690  68.6400  1.86229773 11235
BEIDOU-3 M27            
1 61187U 24168C   26136.57389728 -.00000055  00000+0  00000+0 0  9990
2 61187  54.4980 303.3235 0002214  45.5930 312.3649  1.86229905  8669
